*******************************************************************************
Ephemeris / WWW_USER Fri Mar  7 10:49:48 2025 Pasadena, USA      / Horizons    
*******************************************************************************
Target body name: (2018 TS1)                      {source: JPL#6}
Center body name: Earth (399)                     {source: DE441}
Center-site name: Mauna Kea
*******************************************************************************
Start time      : A.D. 2018-Sep-13 04:36:00.0000 UT      
Stop  time      : A.D. 2018-Sep-13 15:59:00.0000 UT      
Step-size       : 1 minutes
*******************************************************************************
Target pole/equ : undefined
Target radii    : undefined                                                    
Center geodetic : 204.5278, 19.8260847, 4.21024   {E-lon(deg),Lat(deg),Alt(km)}
Center cylindric: 204.5278, 6006.35451, 2151.0229 {E-lon(deg),Dxy(km),Dz(km)}
Center pole/equ : ITRF93                          {East-longitude positive}
Center radii    : 6378.137, 6378.137, 6356.752 km {Equator_a, b, pole_c}       
Target primary  : Sun
Vis. interferer : MOON (R_eq= 1737.400) km        {source: DE441}
Rel. light bend : Sun                             {source: DE441}
Rel. lght bnd GM: 1.3271E+11 km^3/s^2                                          
Small-body perts: Yes                             {source: SB441-N16}
Atmos refraction: NO (AIRLESS)
RA format       : HMS
Time format     : CAL 
Calendar mode   : Mixed Julian/Gregorian
RTS-only print  : NO       
EOP file        : eop.250306.p250602                                           
EOP coverage    : DATA-BASED 1962-JAN-20 TO 2025-MAR-06. PREDICTS-> 2025-JUN-01
Units conversion: 1 au= 149597870.700 km, c= 299792.458 km/s, 1 day= 86400.0 s 
Table cut-offs 1: Elevation (-90.0deg=NO ),Airmass (>38.000=NO), Daylight (YES)
Table cut-offs 2: Solar elongation (  0.0,180.0=NO ),Local Hour Angle( 0.0=NO )
Table cut-offs 3: RA/DEC angular rate (     0.0=NO )                           
*******************************************************************************
Initial IAU76/J2000 heliocentric ecliptic osculating elements (au, days, deg.):
  EPOCH=  2458397.5 ! 2018-Oct-06.00 (TDB)         Residual RMS= .30565        
   EC= .4232280089037878   QR= .7951431742456924   TP= 2458457.9340165281      
   OM= 356.454891650426    W=  97.01949783285009   IN= 2.243887958983723       
  Equivalent ICRF heliocentric cartesian coordinates (au, au/d):
   X= 1.037748414669454E+00  Y= 2.036665248544260E-01  Z= 1.007134111375925E-01
  VX=-1.028941390482545E-02 VY= 1.387292408111162E-02 VZ= 6.642652492995660E-03
Asteroid physical parameters (km, seconds, rotational period in hours):        
   GM= n.a.                RAD= n.a.               ROTPER= n.a.                
   H= 25.7                 G= .150                 B-V= n.a.                   
                           ALBEDO= n.a.            STYP= n.a.                  
*******************************************************************************
 Date__(UT)__HR:MN     R.A._________(ICRF)_________DEC
******************************************************
$$SOE
 2018-Sep-13 06:39  m  00 41 30.818947 +03 52 08.21170
 2018-Sep-13 06:40  m  00 41 30.817898 +03 52 08.60168
 2018-Sep-13 06:41  m  00 41 30.816802 +03 52 08.99165
 2018-Sep-13 06:42  m  00 41 30.815660 +03 52 09.38163
 2018-Sep-13 06:43  m  00 41 30.814470 +03 52 09.77160
 2018-Sep-13 06:44  m  00 41 30.813234 +03 52 10.16156
 2018-Sep-13 06:45  m  00 41 30.811951 +03 52 10.55153
 2018-Sep-13 06:46  m  00 41 30.810621 +03 52 10.94149
 2018-Sep-13 06:47  m  00 41 30.809245 +03 52 11.33146
 2018-Sep-13 06:48  m  00 41 30.807822 +03 52 11.72141
 2018-Sep-13 06:49  m  00 41 30.806352 +03 52 12.11137
 2018-Sep-13 06:50  m  00 41 30.804837 +03 52 12.50132
 2018-Sep-13 06:51  m  00 41 30.803274 +03 52 12.89127
 2018-Sep-13 06:52  m  00 41 30.801666 +03 52 13.28121
 2018-Sep-13 06:53  m  00 41 30.800011 +03 52 13.67115
 2018-Sep-13 06:54  m  00 41 30.798310 +03 52 14.06108
 2018-Sep-13 06:55  m  00 41 30.796564 +03 52 14.45102
 2018-Sep-13 06:56  m  00 41 30.794771 +03 52 14.84094
 2018-Sep-13 06:57  m  00 41 30.792932 +03 52 15.23086
 2018-Sep-13 06:58  m  00 41 30.791047 +03 52 15.62078
 2018-Sep-13 06:59  m  00 41 30.789116 +03 52 16.01069
 2018-Sep-13 07:00  m  00 41 30.787140 +03 52 16.40060
 2018-Sep-13 07:01  m  00 41 30.785118 +03 52 16.79049
 2018-Sep-13 07:02  m  00 41 30.783050 +03 52 17.18039
 2018-Sep-13 07:03  m  00 41 30.780937 +03 52 17.57028
 2018-Sep-13 07:04  m  00 41 30.778778 +03 52 17.96016
 2018-Sep-13 07:05  m  00 41 30.776574 +03 52 18.35003
 2018-Sep-13 07:06  m  00 41 30.774324 +03 52 18.73990
 2018-Sep-13 07:07  m  00 41 30.772030 +03 52 19.12976
 2018-Sep-13 07:08  m  00 41 30.769690 +03 52 19.51962
 2018-Sep-13 07:09  m  00 41 30.767305 +03 52 19.90946
 2018-Sep-13 07:10  m  00 41 30.764875 +03 52 20.29930
 2018-Sep-13 07:11  m  00 41 30.762400 +03 52 20.68913
 2018-Sep-13 07:12  m  00 41 30.759880 +03 52 21.07896
 2018-Sep-13 07:13  m  00 41 30.757316 +03 52 21.46877
 2018-Sep-13 07:14  m  00 41 30.754707 +03 52 21.85858
 2018-Sep-13 07:15     00 41 30.752053 +03 52 22.24838
 2018-Sep-13 07:16     00 41 30.749355 +03 52 22.63817
 2018-Sep-13 07:17     00 41 30.746612 +03 52 23.02795
 2018-Sep-13 07:18     00 41 30.743825 +03 52 23.41772
 2018-Sep-13 07:19     00 41 30.740994 +03 52 23.80749
 2018-Sep-13 07:20     00 41 30.738118 +03 52 24.19724
 2018-Sep-13 07:21     00 41 30.735198 +03 52 24.58698
 2018-Sep-13 07:22     00 41 30.732235 +03 52 24.97672
 2018-Sep-13 07:23     00 41 30.729227 +03 52 25.36644
 2018-Sep-13 07:24     00 41 30.726176 +03 52 25.75616
 2018-Sep-13 07:25     00 41 30.723081 +03 52 26.14586
 2018-Sep-13 07:26     00 41 30.719942 +03 52 26.53555
 2018-Sep-13 07:27     00 41 30.716760 +03 52 26.92523
 2018-Sep-13 07:28     00 41 30.713535 +03 52 27.31490
 2018-Sep-13 07:29     00 41 30.710266 +03 52 27.70456
 2018-Sep-13 07:30     00 41 30.706953 +03 52 28.09421
 2018-Sep-13 07:31     00 41 30.703598 +03 52 28.48385
 2018-Sep-13 07:32     00 41 30.700199 +03 52 28.87347
 2018-Sep-13 07:33     00 41 30.696758 +03 52 29.26308
 2018-Sep-13 07:34     00 41 30.693274 +03 52 29.65268
 2018-Sep-13 07:35     00 41 30.689747 +03 52 30.04227
 2018-Sep-13 07:36     00 41 30.686177 +03 52 30.43185
 2018-Sep-13 07:37     00 41 30.682565 +03 52 30.82141
 2018-Sep-13 07:38     00 41 30.678910 +03 52 31.21096
 2018-Sep-13 07:39     00 41 30.675213 +03 52 31.60050
 2018-Sep-13 07:40     00 41 30.671473 +03 52 31.99002
 2018-Sep-13 07:41     00 41 30.667692 +03 52 32.37953
 2018-Sep-13 07:42     00 41 30.663868 +03 52 32.76903
 2018-Sep-13 07:43     00 41 30.660003 +03 52 33.15851
 2018-Sep-13 07:44     00 41 30.656095 +03 52 33.54798
 2018-Sep-13 07:45     00 41 30.652146 +03 52 33.93743
 2018-Sep-13 07:46     00 41 30.648156 +03 52 34.32687
 2018-Sep-13 07:47     00 41 30.644123 +03 52 34.71629
 2018-Sep-13 07:48     00 41 30.640050 +03 52 35.10570
 2018-Sep-13 07:49     00 41 30.635935 +03 52 35.49510
 2018-Sep-13 07:50     00 41 30.631779 +03 52 35.88448
 2018-Sep-13 07:51     00 41 30.627582 +03 52 36.27384
 2018-Sep-13 07:52     00 41 30.623343 +03 52 36.66319
 2018-Sep-13 07:53     00 41 30.619065 +03 52 37.05252
 2018-Sep-13 07:54     00 41 30.614745 +03 52 37.44184
 2018-Sep-13 07:55     00 41 30.610385 +03 52 37.83114
 2018-Sep-13 07:56     00 41 30.605984 +03 52 38.22043
 2018-Sep-13 07:57     00 41 30.601543 +03 52 38.60970
 2018-Sep-13 07:58     00 41 30.597061 +03 52 38.99895
 2018-Sep-13 07:59     00 41 30.592540 +03 52 39.38818
 2018-Sep-13 08:00     00 41 30.587978 +03 52 39.77740
 2018-Sep-13 08:01     00 41 30.583377 +03 52 40.16660
 2018-Sep-13 08:02     00 41 30.578735 +03 52 40.55579
 2018-Sep-13 08:03     00 41 30.574054 +03 52 40.94495
 2018-Sep-13 08:04     00 41 30.569334 +03 52 41.33410
 2018-Sep-13 08:05     00 41 30.564574 +03 52 41.72323
 2018-Sep-13 08:06     00 41 30.559775 +03 52 42.11234
 2018-Sep-13 08:07     00 41 30.554936 +03 52 42.50144
 2018-Sep-13 08:08     00 41 30.550059 +03 52 42.89051
 2018-Sep-13 08:09     00 41 30.545143 +03 52 43.27957
 2018-Sep-13 08:10     00 41 30.540187 +03 52 43.66861
 2018-Sep-13 08:11     00 41 30.535194 +03 52 44.05763
 2018-Sep-13 08:12     00 41 30.530161 +03 52 44.44663
 2018-Sep-13 08:13     00 41 30.525091 +03 52 44.83561
 2018-Sep-13 08:14     00 41 30.519982 +03 52 45.22457
 2018-Sep-13 08:15     00 41 30.514834 +03 52 45.61351
 2018-Sep-13 08:16     00 41 30.509649 +03 52 46.00243
 2018-Sep-13 08:17     00 41 30.504426 +03 52 46.39134
 2018-Sep-13 08:18     00 41 30.499165 +03 52 46.78022
 2018-Sep-13 08:19     00 41 30.493867 +03 52 47.16908
 2018-Sep-13 08:20     00 41 30.488531 +03 52 47.55792
 2018-Sep-13 08:21     00 41 30.483157 +03 52 47.94674
 2018-Sep-13 08:22     00 41 30.477747 +03 52 48.33554
 2018-Sep-13 08:23     00 41 30.472299 +03 52 48.72432
 2018-Sep-13 08:24     00 41 30.466815 +03 52 49.11308
 2018-Sep-13 08:25     00 41 30.461293 +03 52 49.50182
 2018-Sep-13 08:26     00 41 30.455735 +03 52 49.89053
 2018-Sep-13 08:27     00 41 30.450141 +03 52 50.27923
 2018-Sep-13 08:28     00 41 30.444510 +03 52 50.66790
 2018-Sep-13 08:29     00 41 30.438842 +03 52 51.05655
 2018-Sep-13 08:30     00 41 30.433139 +03 52 51.44518
 2018-Sep-13 08:31     00 41 30.427400 +03 52 51.83378
 2018-Sep-13 08:32     00 41 30.421624 +03 52 52.22237
 2018-Sep-13 08:33     00 41 30.415813 +03 52 52.61093
 2018-Sep-13 08:34     00 41 30.409967 +03 52 52.99947
 2018-Sep-13 08:35     00 41 30.404085 +03 52 53.38798
 2018-Sep-13 08:36     00 41 30.398168 +03 52 53.77647
 2018-Sep-13 08:37     00 41 30.392216 +03 52 54.16494
 2018-Sep-13 08:38     00 41 30.386229 +03 52 54.55339
 2018-Sep-13 08:39     00 41 30.380207 +03 52 54.94181
 2018-Sep-13 08:40     00 41 30.374150 +03 52 55.33021
 2018-Sep-13 08:41     00 41 30.368059 +03 52 55.71858
